[{"OBJECT_NAME":"STARLINK-31739","OBJECT_ID":"2024-091P","EPOCH":"2026-03-09T06:48:48.169440","MEAN_MOTION":15.30194066,"ECCENTRICITY":0.0001211,"INCLINATION":53.1623,"RA_OF_ASC_NODE":25.8419,"ARG_OF_PERICENTER":82.7777,"MEAN_ANOMALY":277.3361,"EPHEMERIS_TYPE":0,"CLASSIFICATION_TYPE":"U","NORAD_CAT_ID":59766,"ELEMENT_SET_NO":999,"REV_AT_EPOCH":10298,"BSTAR":-2.3420707e-5,"MEAN_MOTION_DOT":-1.053e-5,"MEAN_MOTION_DDOT":0},{"OBJECT_NAME":"SCS-01 D","OBJECT_ID":"2025-100D","EPOCH":"2026-03-09T18:08:45.040704","MEAN_MOTION":15.31902149,"ECCENTRICITY":0.00063457,"INCLINATION":97.373,"RA_OF_ASC_NODE":145.4097,"ARG_OF_PERICENTER":266.2302,"MEAN_ANOMALY":93.8214,"EPHEMERIS_TYPE":0,"CLASSIFICATION_TYPE":"U","NORAD_CAT_ID":63985,"ELEMENT_SET_NO":999,"REV_AT_EPOCH":4562,"BSTAR":0.0010528181,"MEAN_MOTION_DOT":0.00032471,"MEAN_MOTION_DDOT":0}]
